start=new Date('2021-11-17T00:00:00.000Z').valueOf();
sats=[{"ECCENTRICITY":"0.00010770","RCS_SIZE":"LARGE","OBJECT_ID":"2021-040L","LAUNCH_DATE":"2021-05-09","MEAN_MOTION":"15.06407921","DECAY_DATE":null,"EPHEMERIS_TYPE":"0","TLE_LINE1":"1 48438U 21040L   21320.74113963  .00001256  00000-0  10319-3 0  9997","BSTAR":"0.00010319000000","REF_FRAME":"TEME","MEAN_ANOMALY":"277.0813","FILE":"3216973","TLE_LINE2":"2 48438  53.0560  47.3506 0001077  83.0298 277.0813 15.06407921 30677","MEAN_MOTION_DOT":"0.00001256","SEMIMAJOR_AXIS":"6925.324","APOAPSIS":"547.935","INCLINATION":"53.0560","CLASSIFICATION_TYPE":"U","OBJECT_NAME":"STARLINK-2640","MEAN_MOTION_DDOT":"0.0000000000000","PERIAPSIS":"546.443","RA_OF_ASC_NODE":"47.3506","SITE":"AFETR","GP_ID":"189886373","ELEMENT_SET_NO":"999","EPOCH":"2021-11-16T17:47:14.464032","CENTER_NAME":"EARTH","TIME_SYSTEM":"UTC","MEAN_ELEMENT_THEORY":"SGP4","PERIOD":"95.592","NORAD_CAT_ID":"48438","ARG_OF_PERICENTER":"83.0298","REV_AT_EPOCH":"3067","COUNTRY_CODE":"US","OBJECT_TYPE":"PAYLOAD"},{"OBJECT_NAME":"STARLINK-2583","PERIAPSIS":"546.374","MEAN_MOTION_DDOT":"0.0000000000000","GP_ID":"189882939","ELEMENT_SET_NO":"999","RA_OF_ASC_NODE":"48.2660","SITE":"AFETR","TLE_LINE2":"2 48439  53.0554  48.2660 0001213  81.8410 278.2717 15.06399873 29362","MEAN_MOTION_DOT":"0.00000436","REF_FRAME":"TEME","BSTAR":"0.00004813100000","MEAN_ANOMALY":"278.2717","FILE":"3216827","CLASSIFICATION_TYPE":"U","SEMIMAJOR_AXIS":"6925.349","APOAPSIS":"548.054","INCLINATION":"53.0554","NORAD_CAT_ID":"48439","PERIOD":"95.592","REV_AT_EPOCH":"2936","COUNTRY_CODE":"US","OBJECT_TYPE":"PAYLOAD","ARG_OF_PERICENTER":"81.8410","TIME_SYSTEM":"UTC","CENTER_NAME":"EARTH","EPOCH":"2021-11-16T12:55:18.847776","MEAN_ELEMENT_THEORY":"SGP4","ECCENTRICITY":"0.00012130","RCS_SIZE":"LARGE","LAUNCH_DATE":"2021-05-09","OBJECT_ID":"2021-040M","EPHEMERIS_TYPE":"0","TLE_LINE1":"1 48439U 21040M   21320.53841259  .00000436  00000-0  48131-4 0  9994","MEAN_MOTION":"15.06399873","DECAY_DATE":null},{"DECAY_DATE":null,"MEAN_MOTION":"15.06398863","TLE_LINE1":"1 48440U 21040N   21320.53472580  .00000973  00000-0  84204-4 0  9990","EPHEMERIS_TYPE":"0","LAUNCH_DATE":"2021-05-09","OBJECT_ID":"2021-040N","ECCENTRICITY":"0.00012310","RCS_SIZE":"LARGE","MEAN_ELEMENT_THEORY":"SGP4","CENTER_NAME":"EARTH","TIME_SYSTEM":"UTC","EPOCH":"2021-11-16T12:50:00.309120","REV_AT_EPOCH":"2936","COUNTRY_CODE":"US","OBJECT_TYPE":"PAYLOAD","ARG_OF_PERICENTER":"85.8007","NORAD_CAT_ID":"48440","PERIOD":"95.592","CLASSIFICATION_TYPE":"U","SEMIMAJOR_AXIS":"6925.352","APOAPSIS":"548.070","INCLINATION":"53.0575","TLE_LINE2":"2 48440  53.0575  48.2631 0001231  85.8007 274.3123 15.06398863 29367","MEAN_MOTION_DOT":"0.00000973","REF_FRAME":"TEME","BSTAR":"0.00008420400000","MEAN_ANOMALY":"274.3123","FILE":"3216827","GP_ID":"189883062","ELEMENT_SET_NO":"999","RA_OF_ASC_NODE":"48.2631","SITE":"AFETR","OBJECT_NAME":"STARLINK-2682","PERIAPSIS":"546.365","MEAN_MOTION_DDOT":"0.0000000000000"},{"DECAY_DATE":null,"MEAN_MOTION":"15.06403832","TLE_LINE1":"1 48441U 21040P   21320.53103187 -.00000056  00000-0  15159-4 0  9991","EPHEMERIS_TYPE":"0","OBJECT_ID":"2021-040P","LAUNCH_DATE":"2021-05-09","RCS_SIZE":"LARGE","ECCENTRICITY":"0.00011500","MEAN_ELEMENT_THEORY":"SGP4","EPOCH":"2021-11-16T12:44:41.153568","TIME_SYSTEM":"UTC","CENTER_NAME":"EARTH","ARG_OF_PERICENTER":"92.7983","OBJECT_TYPE":"PAYLOAD","COUNTRY_CODE":"US","REV_AT_EPOCH":"2936","PERIOD":"95.592","NORAD_CAT_ID":"48441","INCLINATION":"53.0575","APOAPSIS":"547.998","SEMIMAJOR_AXIS":"6925.337","CLASSIFICATION_TYPE":"U","FILE":"3216827","MEAN_ANOMALY":"267.3137","BSTAR":"0.00001515900000","REF_FRAME":"TEME","MEAN_MOTION_DOT":"-0.00000056","TLE_LINE2":"2 48441  53.0575  48.2797 0001150  92.7983 267.3137 15.06403832 29361","SITE":"AFETR","RA_OF_ASC_NODE":"48.2797","ELEMENT_SET_NO":"999","GP_ID":"189881702","PERIAPSIS":"546.405","MEAN_MOTION_DDOT":"0.0000000000000","OBJECT_NAME":"STARLINK-2702"},{"MEAN_ELEMENT_THEORY":"SGP4","EPOCH":"2021-11-16T12:39:23.460768","TIME_SYSTEM":"UTC","CENTER_NAME":"EARTH","ARG_OF_PERICENTER":"67.3709","OBJECT_TYPE":"PAYLOAD","COUNTRY_CODE":"US","REV_AT_EPOCH":"2936","PERIOD":"95.593","NORAD_CAT_ID":"48442","INCLINATION":"53.0562","APOAPSIS":"548.106","SEMIMAJOR_AXIS":"6925.374","CLASSIFICATION_TYPE":"U","FILE":"3216827","MEAN_ANOMALY":"292.7412","REF_FRAME":"TEME","BSTAR":"-0.00000659810000","MEAN_MOTION_DOT":"-0.00000380","TLE_LINE2":"2 48442  53.0562  48.2934 0001251  67.3709 292.7412 15.06391575 29365","SITE":"AFETR","RA_OF_ASC_NODE":"48.2934","GP_ID":"189883407","ELEMENT_SET_NO":"999","MEAN_MOTION_DDOT":"0.0000000000000","PERIAPSIS":"546.373","OBJECT_NAME":"STARLINK-2644","DECAY_DATE":null,"MEAN_MOTION":"15.06391575","TLE_LINE1":"1 48442U 21040Q   21320.52735487 -.00000380  00000-0 -65981-5 0  9995","EPHEMERIS_TYPE":"0","OBJECT_ID":"2021-040Q","LAUNCH_DATE":"2021-05-09","RCS_SIZE":"LARGE","ECCENTRICITY":"0.00012510"},{"TLE_LINE1":"1 48443U 21040R   21320.52366843  .00001877  00000-0  14485-3 0  9993","EPHEMERIS_TYPE":"0","DECAY_DATE":null,"MEAN_MOTION":"15.06407539","OBJECT_ID":"2021-040R","LAUNCH_DATE":"2021-05-09","ECCENTRICITY":"0.00012270","RCS_SIZE":"LARGE","ARG_OF_PERICENTER":"69.6324","REV_AT_EPOCH":"2936","OBJECT_TYPE":"PAYLOAD","COUNTRY_CODE":"US","PERIOD":"95.592","NORAD_CAT_ID":"48443","MEAN_ELEMENT_THEORY":"SGP4","EPOCH":"2021-11-16T12:34:04.952352","CENTER_NAME":"EARTH","TIME_SYSTEM":"UTC","RA_OF_ASC_NODE":"48.3090","SITE":"AFETR","ELEMENT_SET_NO":"999","GP_ID":"189883290","OBJECT_NAME":"STARLINK-2663","PERIAPSIS":"546.341","MEAN_MOTION_DDOT":"0.0000000000000","SEMIMAJOR_AXIS":"6925.325","INCLINATION":"53.0567","APOAPSIS":"548.040","CLASSIFICATION_TYPE":"U","BSTAR":"0.00014485000000","REF_FRAME":"TEME","FILE":"3216827","MEAN_ANOMALY":"290.4797","TLE_LINE2":"2 48443  53.0567  48.3090 0001227  69.6324 290.4797 15.06407539 29365","MEAN_MOTION_DOT":"0.00001877"},{"BSTAR":"0.00000219790000","REF_FRAME":"TEME","FILE":"3216973","MEAN_ANOMALY":"286.9791","TLE_LINE2":"2 48444  53.0569  47.4368 0001460  73.1358 286.9791 15.06399260 30673","MEAN_MOTION_DOT":"-0.00000249","SEMIMAJOR_AXIS":"6925.351","INCLINATION":"53.0569","APOAPSIS":"548.227","CLASSIFICATION_TYPE":"U","OBJECT_NAME":"STARLINK-2645","PERIAPSIS":"546.205","MEAN_MOTION_DDOT":"0.0000000000000","RA_OF_ASC_NODE":"47.4368","SITE":"AFETR","GP_ID":"189886962","ELEMENT_SET_NO":"999","EPOCH":"2021-11-16T17:15:23.430816","CENTER_NAME":"EARTH","TIME_SYSTEM":"UTC","MEAN_ELEMENT_THEORY":"SGP4","PERIOD":"95.592","NORAD_CAT_ID":"48444","ARG_OF_PERICENTER":"73.1358","REV_AT_EPOCH":"3067","OBJECT_TYPE":"PAYLOAD","COUNTRY_CODE":"US","ECCENTRICITY":"0.00014600","RCS_SIZE":"LARGE","OBJECT_ID":"2021-040S","LAUNCH_DATE":"2021-05-09","MEAN_MOTION":"15.06399260","DECAY_DATE":null,"EPHEMERIS_TYPE":"0","TLE_LINE1":"1 48444U 21040S   21320.71902119 -.00000249  00000-0  21979-5 0  9998"},{"OBJECT_NAME":"STARLINK-2634","PERIAPSIS":"546.303","MEAN_MOTION_DDOT":"0.0000000000000","RA_OF_ASC_NODE":"48.3479","SITE":"AFETR","ELEMENT_SET_NO":"999","GP_ID":"189882203","REF_FRAME":"TEME","BSTAR":"-0.00000128670000","MEAN_ANOMALY":"288.8277","FILE":"3216827","TLE_LINE2":"2 48445  53.0578  48.3479 0001338  71.2858 288.8277 15.06394919 29365","MEAN_MOTION_DOT":"-0.00000301","SEMIMAJOR_AXIS":"6925.364","APOAPSIS":"548.156","INCLINATION":"53.0578","CLASSIFICATION_TYPE":"U","PERIOD":"95.592","NORAD_CAT_ID":"48445","ARG_OF_PERICENTER":"71.2858","REV_AT_EPOCH":"2936","OBJECT_TYPE":"PAYLOAD","COUNTRY_CODE":"US","EPOCH":"2021-11-16T12:23:28.411584","TIME_SYSTEM":"UTC","CENTER_NAME":"EARTH","MEAN_ELEMENT_THEORY":"SGP4","ECCENTRICITY":"0.00013380","RCS_SIZE":"LARGE","OBJECT_ID":"2021-040T","LAUNCH_DATE":"2021-05-09","EPHEMERIS_TYPE":"0","TLE_LINE1":"1 48445U 21040T   21320.51630106 -.00000301  00000-0 -12867-5 0  9997","MEAN_MOTION":"15.06394919","DECAY_DATE":null},{"SITE":"AFETR","RA_OF_ASC_NODE":"47.4691","GP_ID":"189886372","ELEMENT_SET_NO":"999","PERIAPSIS":"546.414","MEAN_MOTION_DDOT":"0.0000000000000","OBJECT_NAME":"STARLINK-2247","APOAPSIS":"548.079","INCLINATION":"53.0566","SEMIMAJOR_AXIS":"6925.382","CLASSIFICATION_TYPE":"U","MEAN_ANOMALY":"285.8528","FILE":"3216973","REF_FRAME":"TEME","BSTAR":"-0.00003601100000","MEAN_MOTION_DOT":"-0.00000818","TLE_LINE2":"2 48446  53.0566  47.4691 0001202  74.2593 285.8528 15.06389168 30670","ARG_OF_PERICENTER":"74.2593","OBJECT_TYPE":"PAYLOAD","COUNTRY_CODE":"US","REV_AT_EPOCH":"3067","PERIOD":"95.593","NORAD_CAT_ID":"48446","MEAN_ELEMENT_THEORY":"SGP4","EPOCH":"2021-11-16T17:04:48.054720","TIME_SYSTEM":"UTC","CENTER_NAME":"EARTH","OBJECT_ID":"2021-040U","LAUNCH_DATE":"2021-05-09","RCS_SIZE":"LARGE","ECCENTRICITY":"0.00012020","TLE_LINE1":"1 48446U 21040U   21320.71166730 -.00000818  00000-0 -36011-4 0  9996","EPHEMERIS_TYPE":"0","DECAY_DATE":null,"MEAN_MOTION":"15.06389168"},{"OBJECT_TYPE":"PAYLOAD","COUNTRY_CODE":"US","REV_AT_EPOCH":"2936","ARG_OF_PERICENTER":"75.4911","NORAD_CAT_ID":"48447","PERIOD":"95.592","MEAN_ELEMENT_THEORY":"SGP4","CENTER_NAME":"EARTH","TIME_SYSTEM":"UTC","EPOCH":"2021-11-16T12:12:50.599872","GP_ID":"189882940","ELEMENT_SET_NO":"999","SITE":"AFETR","RA_OF_ASC_NODE":"48.3762","PERIAPSIS":"546.336","MEAN_MOTION_DDOT":"0.0000000000000","OBJECT_NAME":"STARLINK-2269","CLASSIFICATION_TYPE":"U","APOAPSIS":"548.073","INCLINATION":"53.0566","SEMIMAJOR_AXIS":"6925.340","MEAN_MOTION_DOT":"0.00003395","TLE_LINE2":"2 48447  53.0566  48.3762 0001254  75.4911 284.6217 15.06402850 29364","FILE":"3216827","MEAN_ANOMALY":"284.6217","BSTAR":"0.00024668000000","REF_FRAME":"TEME","TLE_LINE1":"1 48447U 21040V   21320.50891898  .00003395  00000-0  24668-3 0  9999","EPHEMERIS_TYPE":"0","DECAY_DATE":null,"MEAN_MOTION":"15.06402850","LAUNCH_DATE":"2021-05-09","OBJECT_ID":"2021-040V","RCS_SIZE":"LARGE","ECCENTRICITY":"0.00012540"}];
